CCSDS_OMM_VERS = 2.0
CREATION_DATE  = 
ORIGINATOR     = 

OBJECT_NAME    = ATLAS CENTAUR 2
OBJECT_ID      = 1963-047A
CENTER_NAME    = EARTH
REF_FRAME      = TEME
TIME_SYSTEM    = UTC
MEAN_ELEMENT_THEORY = SGP/SGP4

EPOCH          = 2026-01-29T07:26:14.534880
MEAN_MOTION    = 14.11957085
ECCENTRICITY   = .0548192
INCLINATION    = 30.3534
RA_OF_ASC_NODE = 55.6959
ARG_OF_PERICENTER = 93.2798
MEAN_ANOMALY   = 273.0636

EPHEMERIS_TYPE = 0
CLASSIFICATION_TYPE = U
NORAD_CAT_ID   = 694
ELEMENT_SET_NO = 999
REV_AT_EPOCH   = 12605
BSTAR          = .2281E-3
MEAN_MOTION_DOT = .1945E-4
MEAN_MOTION_DDOT = 0

CCSDS_OMM_VERS = 2.0
CREATION_DATE  = 
ORIGINATOR     = 

OBJECT_NAME    = THOR AGENA D R/B
OBJECT_ID      = 1964-002A
CENTER_NAME    = EARTH
REF_FRAME      = TEME
TIME_SYSTEM    = UTC
MEAN_ELEMENT_THEORY = SGP/SGP4

EPOCH          = 2026-01-30T00:10:06.010464
MEAN_MOTION    = 14.33994639
ECCENTRICITY   = .0033115
INCLINATION    = 99.1227
RA_OF_ASC_NODE = 41.2392
ARG_OF_PERICENTER = 12.8637
MEAN_ANOMALY   = 347.3383

EPHEMERIS_TYPE = 0
CLASSIFICATION_TYPE = U
NORAD_CAT_ID   = 733
ELEMENT_SET_NO = 999
REV_AT_EPOCH   = 23275
BSTAR          = .15406E-3
MEAN_MOTION_DOT = .384E-5
MEAN_MOTION_DDOT = 0

CCSDS_OMM_VERS = 2.0
CREATION_DATE  = 
ORIGINATOR     = 

OBJECT_NAME    = SL-3 R/B
OBJECT_ID      = 1964-053B
CENTER_NAME    = EARTH
REF_FRAME      = TEME
TIME_SYSTEM    = UTC
MEAN_ELEMENT_THEORY = SGP/SGP4

EPOCH          = 2026-01-30T03:54:37.887264
MEAN_MOTION    = 14.61326464
ECCENTRICITY   = .0077698
INCLINATION    = 65.0765
RA_OF_ASC_NODE = 84.1862
ARG_OF_PERICENTER = 304.4828
MEAN_ANOMALY   = 54.8949

EPHEMERIS_TYPE = 0
CLASSIFICATION_TYPE = U
NORAD_CAT_ID   = 877
ELEMENT_SET_NO = 999
REV_AT_EPOCH   = 26116
BSTAR          = .12212E-3
MEAN_MOTION_DOT = .505E-5
MEAN_MOTION_DDOT = 0

CCSDS_OMM_VERS = 2.0
CREATION_DATE  = 
ORIGINATOR     = 

OBJECT_NAME    = SL-8 R/B
OBJECT_ID      = 1967-045B
CENTER_NAME    = EARTH
REF_FRAME      = TEME
TIME_SYSTEM    = UTC
MEAN_ELEMENT_THEORY = SGP/SGP4

EPOCH          = 2026-01-30T02:21:18.041472
MEAN_MOTION    = 14.45586433
ECCENTRICITY   = .0062862
INCLINATION    = 74.0098
RA_OF_ASC_NODE = 60.1601
ARG_OF_PERICENTER = 76.4205
MEAN_ANOMALY   = 284.3945

EPHEMERIS_TYPE = 0
CLASSIFICATION_TYPE = U
NORAD_CAT_ID   = 2802
ELEMENT_SET_NO = 999
REV_AT_EPOCH   = 8344
BSTAR          = .11175E-3
MEAN_MOTION_DOT = .377E-5
MEAN_MOTION_DDOT = 0

CCSDS_OMM_VERS = 2.0
CREATION_DATE  = 
ORIGINATOR     = 

OBJECT_NAME    = SL-8 R/B
OBJECT_ID      = 1968-040B
CENTER_NAME    = EARTH
REF_FRAME      = TEME
TIME_SYSTEM    = UTC
MEAN_ELEMENT_THEORY = SGP/SGP4

EPOCH          = 2026-01-30T02:33:10.198656
MEAN_MOTION    = 15.02950662
ECCENTRICITY   = .0025777
INCLINATION    = 74.0312
RA_OF_ASC_NODE = 32.5113
ARG_OF_PERICENTER = 227.0441
MEAN_ANOMALY   = 132.8586

EPHEMERIS_TYPE = 0
CLASSIFICATION_TYPE = U
NORAD_CAT_ID   = 3230
ELEMENT_SET_NO = 999
REV_AT_EPOCH   = 8421
BSTAR          = .34495E-3
MEAN_MOTION_DOT = .4629E-4
MEAN_MOTION_DDOT = 0

CCSDS_OMM_VERS = 2.0
CREATION_DATE  = 
ORIGINATOR     = 

OBJECT_NAME    = OAO 2
OBJECT_ID      = 1968-110A
CENTER_NAME    = EARTH
REF_FRAME      = TEME
TIME_SYSTEM    = UTC
MEAN_ELEMENT_THEORY = SGP/SGP4

EPOCH          = 2026-01-28T15:10:00.023808
MEAN_MOTION    = 14.47280842
ECCENTRICITY   = .00060077
INCLINATION    = 34.9929
RA_OF_ASC_NODE = 128.8691
ARG_OF_PERICENTER = 240.4272
MEAN_ANOMALY   = 119.5820

EPHEMERIS_TYPE = 0
CLASSIFICATION_TYPE = U
NORAD_CAT_ID   = 3597
ELEMENT_SET_NO = 999
REV_AT_EPOCH   = 1329
BSTAR          = .13685634E-3
MEAN_MOTION_DOT = .489E-5
MEAN_MOTION_DDOT = 0

CCSDS_OMM_VERS = 2.0
CREATION_DATE  = 
ORIGINATOR     = 

OBJECT_NAME    = ISIS 1
OBJECT_ID      = 1969-009A
CENTER_NAME    = EARTH
REF_FRAME      = TEME
TIME_SYSTEM    = UTC
MEAN_ELEMENT_THEORY = SGP/SGP4

EPOCH          = 2026-01-29T20:40:28.673472
MEAN_MOTION    = 11.30393615
ECCENTRICITY   = .1707856
INCLINATION    = 88.4548
RA_OF_ASC_NODE = 159.5394
ARG_OF_PERICENTER = 167.5088
MEAN_ANOMALY   = 197.4546

EPHEMERIS_TYPE = 0
CLASSIFICATION_TYPE = U
NORAD_CAT_ID   = 3669
ELEMENT_SET_NO = 999
REV_AT_EPOCH   = 34414
BSTAR          = .3477E-3
MEAN_MOTION_DOT = .501E-5
MEAN_MOTION_DDOT = 0

CCSDS_OMM_VERS = 2.0
CREATION_DATE  = 
ORIGINATOR     = 

OBJECT_NAME    = SERT 2
OBJECT_ID      = 1970-009A
CENTER_NAME    = EARTH
REF_FRAME      = TEME
TIME_SYSTEM    = UTC
MEAN_ELEMENT_THEORY = SGP/SGP4

EPOCH          = 2026-01-30T02:27:38.371680
MEAN_MOTION    = 13.58725560
ECCENTRICITY   = .0004033
INCLINATION    = 99.2709
RA_OF_ASC_NODE = 335.3181
ARG_OF_PERICENTER = 264.3982
MEAN_ANOMALY   = 106.1360

EPHEMERIS_TYPE = 0
CLASSIFICATION_TYPE = U
NORAD_CAT_ID   = 4327
ELEMENT_SET_NO = 999
REV_AT_EPOCH   = 77465
BSTAR          = .84715E-4
MEAN_MOTION_DOT = .21E-6
MEAN_MOTION_DDOT = 0

CCSDS_OMM_VERS = 2.0
CREATION_DATE  = 
ORIGINATOR     = 

OBJECT_NAME    = SL-3 R/B
OBJECT_ID      = 1971-028B
CENTER_NAME    = EARTH
REF_FRAME      = TEME
TIME_SYSTEM    = UTC
MEAN_ELEMENT_THEORY = SGP/SGP4

EPOCH          = 2026-01-30T03:48:34.778304
MEAN_MOTION    = 15.58131031
ECCENTRICITY   = .0017852
INCLINATION    = 81.2374
RA_OF_ASC_NODE = 99.5134
ARG_OF_PERICENTER = 69.0693
MEAN_ANOMALY   = 291.2467

EPHEMERIS_TYPE = 0
CLASSIFICATION_TYPE = U
NORAD_CAT_ID   = 5118
ELEMENT_SET_NO = 999
REV_AT_EPOCH   = 98266
BSTAR          = .55261E-3
MEAN_MOTION_DOT = .42075E-3
MEAN_MOTION_DDOT = 0

CCSDS_OMM_VERS = 2.0
CREATION_DATE  = 
ORIGINATOR     = 

OBJECT_NAME    = ASTEX 1
OBJECT_ID      = 1971-089A
CENTER_NAME    = EARTH
REF_FRAME      = TEME
TIME_SYSTEM    = UTC
MEAN_ELEMENT_THEORY = SGP/SGP4

EPOCH          = 2026-01-29T20:26:12.990336
MEAN_MOTION    = 14.50719918
ECCENTRICITY   = .0014499
INCLINATION    = 92.7156
RA_OF_ASC_NODE = 139.1925
ARG_OF_PERICENTER = 208.8584
MEAN_ANOMALY   = 151.1821

EPHEMERIS_TYPE = 0
CLASSIFICATION_TYPE = U
NORAD_CAT_ID   = 5560
ELEMENT_SET_NO = 999
REV_AT_EPOCH   = 85667
BSTAR          = .21585E-3
MEAN_MOTION_DOT = .848E-5
MEAN_MOTION_DDOT = 0

CCSDS_OMM_VERS = 2.0
CREATION_DATE  = 
ORIGINATOR     = 

OBJECT_NAME    = SL-8 R/B
OBJECT_ID      = 1971-119B
CENTER_NAME    = EARTH
REF_FRAME      = TEME
TIME_SYSTEM    = UTC
MEAN_ELEMENT_THEORY = SGP/SGP4

EPOCH          = 2026-01-30T00:36:12.712032
MEAN_MOTION    = 14.36750929
ECCENTRICITY   = .055499
INCLINATION    = 73.8863
RA_OF_ASC_NODE = 247.9327
ARG_OF_PERICENTER = 222.4774
MEAN_ANOMALY   = 133.2165

EPHEMERIS_TYPE = 0
CLASSIFICATION_TYPE = U
NORAD_CAT_ID   = 5730
ELEMENT_SET_NO = 999
REV_AT_EPOCH   = 64993
BSTAR          = .51845E-3
MEAN_MOTION_DOT = .9981E-4
MEAN_MOTION_DDOT = 0

CCSDS_OMM_VERS = 2.0
CREATION_DATE  = 
ORIGINATOR     = 

OBJECT_NAME    = OAO 3 (COPERNICUS)
OBJECT_ID      = 1972-065A
CENTER_NAME    = EARTH
REF_FRAME      = TEME
TIME_SYSTEM    = UTC
MEAN_ELEMENT_THEORY = SGP/SGP4

EPOCH          = 2026-01-30T01:10:13.276992
MEAN_MOTION    = 14.59961118
ECCENTRICITY   = .0006855
INCLINATION    = 35.0046
RA_OF_ASC_NODE = 157.4607
ARG_OF_PERICENTER = 210.1668
MEAN_ANOMALY   = 316.7096

EPHEMERIS_TYPE = 0
CLASSIFICATION_TYPE = U
NORAD_CAT_ID   = 6153
ELEMENT_SET_NO = 999
REV_AT_EPOCH   = 84054
BSTAR          = .13177E-3
MEAN_MOTION_DOT = .621E-5
MEAN_MOTION_DDOT = 0

