ATLAS CENTAUR 2,1 00694U 63047A   26029.30989045  .00001945  00000+0  22810-3 0  9990,2 00694  30.3534  55.6959 0548192  93.2798 273.0636 14.11957085126057,22.651689555414183,-112.97576411718114,494148.62756169523
THOR AGENA D R/B,1 00733U 64002A   26030.00701401  .00000384  00000+0  15406-3 0  9992,2 00733  99.1227  41.2392 0033115  12.8637 347.3383 14.33994639232757,-22.877299224526382,-79.23595487311472,810205.524154352
SL-3 R/B,1 00877U 64053B   26030.16293851  .00000505  00000+0  12212-3 0  9996,2 00877  65.0765  84.1862 0077698 304.4828  54.8949 14.61326464261160,28.93133808263359,-48.594270351559395,741853.6953447924
SL-8 R/B,1 02802U 67045B   26030.09812548  .00000377  00000+0  11175-3 0  9996,2 02802  74.0098  60.1601 0062862  76.4205 284.3945 14.45586433 83441,65.0387076315207,-95.37469339902488,713734.9887722748
SL-8 R/B,1 03230U 68040B   26030.10636804  .00004629  00000+0  34495-3 0  9993,2 03230  74.0312  32.5113 0025777 227.0441 132.8586 15.02950662 84214,39.14563451266061,-98.70879584536085,562077.0430668467
OAO 2,1 03597U 68110A   26028.63194472  .00000489  00000+0  13686-3 0  9991,2 03597  34.9929 128.8691 0006007 240.4272 119.5820 14.47280842 13292,-14.206208504224577,22.623790482649163,733652.8274591434
ISIS 1,1 03669U 69009A   26029.86144298  .00000501  00000+0  34770-3 0  9998,2 03669  88.4548 159.5394 1707856 167.5088 197.4546 11.30393615344142,-48.13148122656013,-139.3377363769756,3120982.345934246
SERT 2,1 04327U 70009A   26030.10252745  .00000021  00000+0  84715-4 0  9990,2 04327  99.2709 335.3181 0004033 264.3982 106.1360 13.58725560774650,-17.446248883042703,41.49244128008557,1046447.0446040226
SL-3 R/B,1 05118U 71028B   26030.15873586  .00042075  00000+0  55261-3 0  9996,2 05118  81.2374  99.5134 0017852  69.0693 291.2467 15.58131031982669,-78.93521340224366,110.42981520121553,431473.60711043637
ASTEX 1,1 05560U 71089A   26029.85153924  .00000848  00000+0  21585-3 0  9990,2 05560  92.7156 139.1925 0014499 208.8584 151.1821 14.50719918856676,-38.38669882732667,-155.5604497264069,742379.5022226903
SL-8 R/B,1 05730U 71119B   26030.02514713  .00009981  00000+0  51845-3 0  9990,2 05730  73.8863 247.9327 0554990 222.4774 133.2165 14.36750929649934,68.89333995273806,81.89851443802577,946882.4873324264
OAO 3 (COPERNICUS),1 06153U 72065A   26030.04876478  .00000621  00000+0  13177-3 0  9990,2 06153  35.0046 157.4607 0006855 210.1668 316.7096 14.59961118840541,-10.188542925680052,52.78418431963748,689454.9811600056
